start=new Date('2021-12-20T00:00:00.000Z').valueOf();
sats=[{"FILE":"3244825","RA_OF_ASC_NODE":"279.9198","MEAN_MOTION":"15.06402096","ELEMENT_SET_NO":"999","MEAN_MOTION_DOT":"0.00000634","DECAY_DATE":null,"PERIOD":"95.592","OBJECT_NAME":"STARLINK-2531","CENTER_NAME":"EARTH","GP_ID":"192042897","TLE_LINE2":"2 48483  53.0558 279.9198 0002280  61.2513 298.8704 15.06402096 34064","TLE_LINE1":"1 48483U 21040BH  21353.58100813  .00000634  00000-0  61504-4 0  9997","SITE":"AFETR","COUNTRY_CODE":"US","BSTAR":"0.00006150400000","RCS_SIZE":"LARGE","OBJECT_ID":"2021-040BH","ECCENTRICITY":"0.00022800","TIME_SYSTEM":"UTC","ARG_OF_PERICENTER":"61.2513","REV_AT_EPOCH":"3406","EPHEMERIS_TYPE":"0","MEAN_MOTION_DDOT":"0.0000000000000","EPOCH":"2021-12-19T13:56:39.102432","SEMIMAJOR_AXIS":"6925.342","CLASSIFICATION_TYPE":"U","PERIAPSIS":"545.628","LAUNCH_DATE":"2021-05-09","MEAN_ELEMENT_THEORY":"SGP4","INCLINATION":"53.0558","MEAN_ANOMALY":"298.8704","APOAPSIS":"548.786","OBJECT_TYPE":"PAYLOAD","NORAD_CAT_ID":"48483","REF_FRAME":"TEME"},{"REF_FRAME":"TEME","NORAD_CAT_ID":"48484","OBJECT_TYPE":"PAYLOAD","APOAPSIS":"548.897","MEAN_ANOMALY":"295.7484","LAUNCH_DATE":"2021-05-09","MEAN_ELEMENT_THEORY":"SGP4","INCLINATION":"53.0556","SEMIMAJOR_AXIS":"6925.375","PERIAPSIS":"545.582","CLASSIFICATION_TYPE":"U","MEAN_MOTION_DDOT":"0.0000000000000","EPOCH":"2021-12-19T19:45:36.506016","REV_AT_EPOCH":"3410","EPHEMERIS_TYPE":"0","RCS_SIZE":"LARGE","TIME_SYSTEM":"UTC","ECCENTRICITY":"0.00023930","OBJECT_ID":"2021-040BJ","ARG_OF_PERICENTER":"64.3752","BSTAR":"-0.00003951300000","COUNTRY_CODE":"US","SITE":"AFETR","TLE_LINE1":"1 48484U 21040BJ  21353.82333919 -.00000870  00000-0 -39513-4 0  9999","TLE_LINE2":"2 48484  53.0556 278.8253 0002393  64.3752 295.7484 15.06391470 34106","OBJECT_NAME":"STARLINK-2696","PERIOD":"95.593","GP_ID":"192041885","CENTER_NAME":"EARTH","MEAN_MOTION_DOT":"-0.00000870","DECAY_DATE":null,"MEAN_MOTION":"15.06391470","ELEMENT_SET_NO":"999","RA_OF_ASC_NODE":"278.8253","FILE":"3244825"},{"EPHEMERIS_TYPE":"0","REV_AT_EPOCH":"3409","OBJECT_ID":"2021-040BK","ECCENTRICITY":"0.00022610","TIME_SYSTEM":"UTC","ARG_OF_PERICENTER":"63.1543","RCS_SIZE":"LARGE","PERIAPSIS":"545.647","CLASSIFICATION_TYPE":"U","SEMIMAJOR_AXIS":"6925.348","EPOCH":"2021-12-19T18:53:53.145024","MEAN_MOTION_DDOT":"0.0000000000000","MEAN_ANOMALY":"296.9677","INCLINATION":"53.0557","LAUNCH_DATE":"2021-05-09","MEAN_ELEMENT_THEORY":"SGP4","REF_FRAME":"TEME","NORAD_CAT_ID":"48485","OBJECT_TYPE":"PAYLOAD","APOAPSIS":"548.779","ELEMENT_SET_NO":"999","MEAN_MOTION":"15.06400143","RA_OF_ASC_NODE":"278.9943","FILE":"3244825","GP_ID":"192042087","CENTER_NAME":"EARTH","OBJECT_NAME":"STARLINK-2500","PERIOD":"95.592","MEAN_MOTION_DOT":"0.00001339","DECAY_DATE":null,"TLE_LINE1":"1 48485U 21040BK  21353.78742066  .00001339  00000-0  10876-3 0  9991","TLE_LINE2":"2 48485  53.0557 278.9943 0002261  63.1543 296.9677 15.06400143 34097","COUNTRY_CODE":"US","BSTAR":"0.00010876000000","SITE":"AFETR"},{"ELEMENT_SET_NO":"999","MEAN_MOTION":"15.06403616","RA_OF_ASC_NODE":"280.1650","FILE":"3244588","GP_ID":"192013004","CENTER_NAME":"EARTH","OBJECT_NAME":"STARLINK-2496","PERIOD":"95.592","DECAY_DATE":null,"MEAN_MOTION_DOT":"0.00001094","TLE_LINE1":"1 48486U 21040BL  21353.52571620  .00001094  00000-0  92360-4 0  9997","TLE_LINE2":"2 48486  53.0560 280.1650 0002220  64.4709 295.6509 15.06403616 34059","COUNTRY_CODE":"US","BSTAR":"0.00009236000000","SITE":"AFETR","EPHEMERIS_TYPE":"0","REV_AT_EPOCH":"3405","TIME_SYSTEM":"UTC","OBJECT_ID":"2021-040BL","ECCENTRICITY":"0.00022200","ARG_OF_PERICENTER":"64.4709","RCS_SIZE":"LARGE","PERIAPSIS":"545.665","CLASSIFICATION_TYPE":"U","SEMIMAJOR_AXIS":"6925.337","EPOCH":"2021-12-19T12:37:01.879680","MEAN_MOTION_DDOT":"0.0000000000000","MEAN_ANOMALY":"295.6509","LAUNCH_DATE":"2021-05-09","MEAN_ELEMENT_THEORY":"SGP4","INCLINATION":"53.0560","REF_FRAME":"TEME","NORAD_CAT_ID":"48486","OBJECT_TYPE":"PAYLOAD","APOAPSIS":"548.740"},{"REF_FRAME":"TEME","NORAD_CAT_ID":"48487","OBJECT_TYPE":"PAYLOAD","APOAPSIS":"548.652","MEAN_ANOMALY":"297.7104","LAUNCH_DATE":"2021-05-09","INCLINATION":"53.0568","MEAN_ELEMENT_THEORY":"SGP4","SEMIMAJOR_AXIS":"6925.334","PERIAPSIS":"545.747","CLASSIFICATION_TYPE":"U","MEAN_MOTION_DDOT":"0.0000000000000","EPOCH":"2021-12-19T19:04:30.052128","REV_AT_EPOCH":"3410","EPHEMERIS_TYPE":"0","RCS_SIZE":"LARGE","TIME_SYSTEM":"UTC","ECCENTRICITY":"0.00020970","ARG_OF_PERICENTER":"62.4097","OBJECT_ID":"2021-040BM","COUNTRY_CODE":"US","BSTAR":"0.00013923000000","SITE":"AFETR","TLE_LINE1":"1 48487U 21040BM  21353.79479227  .00001793  00000-0  13923-3 0  9990","TLE_LINE2":"2 48487  53.0568 278.9742 0002097  62.4097 297.7104 15.06404588 34104","OBJECT_NAME":"STARLINK-2494","PERIOD":"95.592","GP_ID":"192043302","CENTER_NAME":"EARTH","DECAY_DATE":null,"MEAN_MOTION_DOT":"0.00001793","MEAN_MOTION":"15.06404588","ELEMENT_SET_NO":"999","RA_OF_ASC_NODE":"278.9742","FILE":"3244825"},{"MEAN_ANOMALY":"283.4346","LAUNCH_DATE":"2021-05-15","INCLINATION":"53.0542","MEAN_ELEMENT_THEORY":"SGP4","NORAD_CAT_ID":"48553","REF_FRAME":"TEME","APOAPSIS":"549.222","OBJECT_TYPE":"PAYLOAD","REV_AT_EPOCH":"3297","EPHEMERIS_TYPE":"0","RCS_SIZE":"LARGE","OBJECT_ID":"2021-041A","TIME_SYSTEM":"UTC","ARG_OF_PERICENTER":"76.6970","ECCENTRICITY":"0.00029340","SEMIMAJOR_AXIS":"6925.325","PERIAPSIS":"545.158","CLASSIFICATION_TYPE":"U","MEAN_MOTION_DDOT":"0.0000000000000","EPOCH":"2021-12-19T21:42:24.420384","TLE_LINE1":"1 48553U 21041A   21353.90444931 -.00000092  00000-0  12793-4 0  9999","TLE_LINE2":"2 48553  53.0542 208.4763 0002934  76.6970 283.4346 15.06407751 32976","COUNTRY_CODE":"US","BSTAR":"0.00001279300000","SITE":"AFETR","MEAN_MOTION":"15.06407751","ELEMENT_SET_NO":"999","FILE":"3244825","RA_OF_ASC_NODE":"208.4763","PERIOD":"95.592","OBJECT_NAME":"STARLINK-2063","GP_ID":"192042095","CENTER_NAME":"EARTH","DECAY_DATE":null,"MEAN_MOTION_DOT":"-0.00000092"},{"MEAN_ANOMALY":"282.2555","LAUNCH_DATE":"2021-05-15","INCLINATION":"53.0537","MEAN_ELEMENT_THEORY":"SGP4","NORAD_CAT_ID":"48554","REF_FRAME":"TEME","APOAPSIS":"549.295","OBJECT_TYPE":"PAYLOAD","REV_AT_EPOCH":"3297","EPHEMERIS_TYPE":"0","RCS_SIZE":"LARGE","ECCENTRICITY":"0.00029750","OBJECT_ID":"2021-041B","TIME_SYSTEM":"UTC","ARG_OF_PERICENTER":"77.8768","SEMIMAJOR_AXIS":"6925.369","CLASSIFICATION_TYPE":"U","PERIAPSIS":"545.174","MEAN_MOTION_DDOT":"0.0000000000000","EPOCH":"2021-12-19T21:53:02.490432","TLE_LINE1":"1 48554U 21041B   21353.91183438 -.00000074  00000-0  13950-4 0  9999","TLE_LINE2":"2 48554  53.0537 208.4455 0002975  77.8768 282.2555 15.06393239 32976","BSTAR":"0.00001395000000","COUNTRY_CODE":"US","SITE":"AFETR","MEAN_MOTION":"15.06393239","ELEMENT_SET_NO":"999","FILE":"3244825","RA_OF_ASC_NODE":"208.4455","PERIOD":"95.593","OBJECT_NAME":"STARLINK-2139","CENTER_NAME":"EARTH","GP_ID":"192042703","DECAY_DATE":null,"MEAN_MOTION_DOT":"-0.00000074"},{"TLE_LINE2":"2 48555  53.0552 218.6128 0002515  74.4292 285.6975 15.06399642 32820","TLE_LINE1":"1 48555U 21041C   21353.87404950  .00000497  00000-0  52281-4 0  9998","SITE":"AFETR","BSTAR":"0.00005228100000","COUNTRY_CODE":"US","RA_OF_ASC_NODE":"218.6128","FILE":"3244825","MEAN_MOTION":"15.06399642","ELEMENT_SET_NO":"999","DECAY_DATE":null,"MEAN_MOTION_DOT":"0.00000497","OBJECT_NAME":"STARLINK-2145","PERIOD":"95.592","CENTER_NAME":"EARTH","GP_ID":"192043310","LAUNCH_DATE":"2021-05-15","MEAN_ELEMENT_THEORY":"SGP4","INCLINATION":"53.0552","MEAN_ANOMALY":"285.6975","OBJECT_TYPE":"PAYLOAD","APOAPSIS":"548.956","REF_FRAME":"TEME","NORAD_CAT_ID":"48555","RCS_SIZE":"LARGE","OBJECT_ID":"2021-041C","ARG_OF_PERICENTER":"74.4292","ECCENTRICITY":"0.00025150","TIME_SYSTEM":"UTC","REV_AT_EPOCH":"3282","EPHEMERIS_TYPE":"0","MEAN_MOTION_DDOT":"0.0000000000000","EPOCH":"2021-12-19T20:58:37.876800","SEMIMAJOR_AXIS":"6925.350","CLASSIFICATION_TYPE":"U","PERIAPSIS":"545.473"},{"OBJECT_ID":"2021-041D","ECCENTRICITY":"0.00023800","ARG_OF_PERICENTER":"74.6849","TIME_SYSTEM":"UTC","RCS_SIZE":"LARGE","EPHEMERIS_TYPE":"0","REV_AT_EPOCH":"3283","EPOCH":"2021-12-19T22:18:14.899104","MEAN_MOTION_DDOT":"0.0000000000000","PERIAPSIS":"545.581","CLASSIFICATION_TYPE":"U","SEMIMAJOR_AXIS":"6925.364","LAUNCH_DATE":"2021-05-15","MEAN_ELEMENT_THEORY":"SGP4","INCLINATION":"53.0560","MEAN_ANOMALY":"285.4403","OBJECT_TYPE":"PAYLOAD","APOAPSIS":"548.877","REF_FRAME":"TEME","NORAD_CAT_ID":"48556","RA_OF_ASC_NODE":"218.3576","FILE":"3244825","ELEMENT_SET_NO":"999","MEAN_MOTION":"15.06395034","MEAN_MOTION_DOT":"0.00000374","DECAY_DATE":null,"CENTER_NAME":"EARTH","GP_ID":"192042298","OBJECT_NAME":"STARLINK-2151","PERIOD":"95.592","TLE_LINE2":"2 48556  53.0560 218.3576 0002380  74.6849 285.4403 15.06395034 32830","TLE_LINE1":"1 48556U 21041D   21353.92933911  .00000374  00000-0  44027-4 0  9992","SITE":"AFETR","COUNTRY_CODE":"US","BSTAR":"0.00004402700000"},{"TLE_LINE2":"2 48557  53.0540 208.6481 0002760  78.2739 281.8560 15.06397134 32967","TLE_LINE1":"1 48557U 21041E   21353.86760618 -.00000013  00000-0  18035-4 0  9999","SITE":"AFETR","COUNTRY_CODE":"US","BSTAR":"0.00001803500000","FILE":"3244825","RA_OF_ASC_NODE":"208.6481","ELEMENT_SET_NO":"999","MEAN_MOTION":"15.06397134","DECAY_DATE":null,"MEAN_MOTION_DOT":"-0.00000013","CENTER_NAME":"EARTH","GP_ID":"192042501","PERIOD":"95.592","OBJECT_NAME":"STARLINK-2155","LAUNCH_DATE":"2021-05-15","MEAN_ELEMENT_THEORY":"SGP4","INCLINATION":"53.0540","MEAN_ANOMALY":"281.8560","APOAPSIS":"549.134","OBJECT_TYPE":"PAYLOAD","NORAD_CAT_ID":"48557","REF_FRAME":"TEME","ECCENTRICITY":"0.00027600","TIME_SYSTEM":"UTC","ARG_OF_PERICENTER":"78.2739","OBJECT_ID":"2021-041E","RCS_SIZE":"LARGE","EPHEMERIS_TYPE":"0","REV_AT_EPOCH":"3296","EPOCH":"2021-12-19T20:49:21.173952","MEAN_MOTION_DDOT":"0.0000000000000","PERIAPSIS":"545.311","CLASSIFICATION_TYPE":"U","SEMIMAJOR_AXIS":"6925.357"}];
